OBJECT_NAME,OBJECT_ID,EPOCH,MEAN_MOTION,ECCENTRICITY,INCLINATION,RA_OF_ASC_NODE,ARG_OF_PERICENTER,MEAN_ANOMALY,EPHEMERIS_TYPE,CLASSIFICATION_TYPE,NORAD_CAT_ID,ELEMENT_SET_NO,REV_AT_EPOCH,BSTAR,MEAN_MOTION_DOT,MEAN_MOTION_DDOT
GAOFEN-11 01,2018-063A,2026-07-14T15:20:36.892896,15.56063942,.00029956,97.1281,262.4535,201.4692,158.6438,0,U,43585,999,44461,.18589806E-3,.12865E-3,0
ICESAT-2,2018-070A,2026-07-14T14:10:50.326464,15.28170956,.00057588,92.0096,298.3842,60.4421,299.7402,0,U,43613,999,43664,.18809525E-3,.5166E-4,0
HYSIS,2018-096A,2026-07-14T14:49:57.427392,14.78671422,.00018574,97.9836,262.1492,84.0998,276.0425,0,U,43719,999,41147,.16141784E-3,.1131E-4,0
KAZSTSAT,2018-099AB,2026-07-14T13:59:28.090464,14.99954785,.00073844,97.4319,226.2764,343.5149,16.5834,0,U,43783,999,41541,.46387338E-4,.52E-5,0
SAUDISAT 5A,2018-102A,2026-07-14T14:24:52.877664,15.28317345,.00104742,97.3054,256.6555,45.6338,314.5758,0,U,43831,999,41986,.11531901E-3,.3111E-4,0
SAUDISAT 5B,2018-102C,2026-07-14T14:45:33.974784,15.28560594,.001126,97.3164,259.7890,47.0323,313.1860,0,U,43833,999,41998,.10838141E-3,.2942E-4,0
GAOFEN-10R,2019-066A,2026-07-14T14:44:17.983392,14.83056412,.00069031,98.0514,149.3947,54.5931,305.5926,0,U,44622,999,36644,.71505256E-4,.527E-5,0
CARTOSAT-3,2019-081A,2026-07-14T14:56:05.431776,15.19181586,.001278,97.4288,257.0466,61.1893,299.0623,0,U,44804,999,36763,.92009E-4,.1871E-4,0
GAOFEN-12 01,2019-082A,2026-07-14T14:06:25.264224,14.80479304,.00010021,97.8109,201.2449,54.0083,306.1222,0,U,44819,999,35814,.28207944E-4,.165E-5,0
CSG-1,2019-092A,2026-07-14T14:17:45.615840,14.82156478,.00014982,97.8894,18.8022,90.2468,269.8917,0,U,44873,999,35553,.26054281E-4,.155E-5,0
NEMO-HD,2020-061F,2026-07-14T14:14:35.685312,15.45130862,.00009861,97.1908,257.2771,94.8322,265.3040,0,U,46277,999,32621,.13987787E-3,.6536E-4,0
SENTINEL-6A,2020-086A,2026-07-14T09:53:22.025472,12.80930141,.00077914,66.0413,78.5072,269.8575,90.1548,0,U,46984,999,26381,.75229813E-4,-.44E-6,0
CAS500-1,2021-022A,2026-07-14T15:26:41.334144,15.20127563,.00051524,97.3870,90.3367,172.7174,187.4137,0,U,47932,999,29493,.16649823E-3,.3532E-4,0
GAOFEN-12 02,2021-026A,2026-07-14T14:26:35.735136,14.80315772,.00057994,97.9934,193.6720,133.7457,226.4236,0,U,48079,999,28581,.27076651E-4,.154E-5,0
PLEIADES NEO 3,2021-034A,2026-07-14T14:29:27.519936,14.81667580,.00013731,97.8946,269.9761,89.9930,270.1440,0,U,48268,999,28171,-.2101053E-5,-.69E-6,0
PLEIADES NEO 4,2021-073E,2026-07-14T15:18:04.680288,14.81673877,.00013608,97.8945,270.0053,94.1774,265.9595,0,U,49070,999,26543,.16512753E-3,.1248E-4,0
LANDSAT 9,2021-088A,2026-07-14T11:00:12.765312,14.57095098,.00011381,98.2271,265.3042,88.3809,271.7519,0,U,49260,999,25497,.40438892E-4,.137E-5,0
CSG-2,2022-008A,2026-07-14T15:06:19.373760,14.82150098,.00015493,97.8887,18.8297,85.9525,274.1865,0,U,51444,999,24065,.3239047E-5,-.26E-6,0
GAOFEN-12 03,2022-069A,2026-07-14T15:16:26.342400,14.80073874,.00024255,97.8251,82.8110,73.5271,286.6207,0,U,52912,999,21867,.34417053E-4,.21E-5,0
SWOT,2022-173A,2026-07-14T13:40:11.775936,14.00172367,.0000268,77.6109,358.3425,79.1642,280.9540,0,U,54754,999,18298,.32476625E-4,.45E-6,0
GAOFEN-12 04,2023-123A,2026-07-14T14:07:16.339584,14.79774709,.00035471,97.9102,113.1970,51.8161,308.3370,0,U,57654,999,15668,.69628261E-4,.472E-5,0
PARS 1,2024-039Q,2026-07-14T15:04:49.669824,15.46281774,.00098464,97.4836,177.4261,28.7692,331.4098,0,U,59065,999,13288,.13631433E-3,.6629E-4,0
RESURS-P 4,2024-061A,2026-07-14T15:02:57.182208,15.32277897,.00032266,97.2759,143.0520,90.2462,269.9150,0,U,59371,999,12796,.55662956E-4,.1659E-4,0
LEGION 1,2024-081A,2026-07-14T12:56:44.285280,15.16841489,.00077016,97.5014,273.1062,272.1900,87.8452,0,U,59625,999,12168,.9601198E-4,.1822E-4,0
LEGION 2,2024-081B,2026-07-14T13:40:28.884864,15.16820457,.00101627,97.5015,273.2331,235.7069,124.3203,0,U,59626,999,12169,.11192564E-3,.2135E-4,0
ALOS-4 (DAICHI-4),2024-123A,2026-07-14T13:11:45.511584,14.79468577,.00015684,97.9222,292.3328,98.7226,261.4163,0,U,60182,999,10992,.5050306E-4,.326E-5,0
LEGION 3,2024-146A,2026-07-14T13:05:42.586656,15.15653449,.0008276,45.0020,243.8705,330.6398,29.4015,0,U,60452,999,10617,.99654194E-4,.1664E-4,0
LEGION 4,2024-146B,2026-07-14T14:40:16.230144,15.15678859,.00089381,45.0030,335.3853,110.2253,249.9587,0,U,60453,999,10503,.1133549E-3,.1931E-4,0
SENTINEL-2C,2024-157A,2026-07-14T10:41:12.589440,14.30815533,.00009585,98.5685,269.8404,103.4162,256.7128,0,U,60989,999,9688,.33735765E-4,.45E-6,0
IONOSFERA-M 1,2024-199A,2026-07-14T14:54:01.990368,14.22759084,.00021682,98.7135,68.4989,73.6656,286.4760,0,U,61735,999,13160,.33121568E-4,.3E-6,0
