GAOFEN-11 01            
1 43585U 18063A   26195.63931589  .00012865  00000+0  18590-3 0  9997
2 43585  97.1281 262.4535 0002995 201.4692 158.6438 15.56063942444616
ICESAT-2                
1 43613U 18070A   26195.59086026  .00005166  00000+0  18810-3 0  9990
2 43613  92.0096 298.3842 0005758  60.4421 299.7402 15.28170956436643
HYSIS                   
1 43719U 18096A   26195.61802578  .00001131  00000+0  16142-3 0  9990
2 43719  97.9836 262.1492 0001857  84.0998 276.0425 14.78671422411478
KAZSTSAT                
1 43783U 18099AB  26195.58296401  .00000520  00000+0  46387-4 0  9998
2 43783  97.4319 226.2764 0007384 343.5149  16.5834 14.99954785415413
SAUDISAT 5A             
1 43831U 18102A   26195.60061201  .00003111  00000+0  11532-3 0  9990
2 43831  97.3054 256.6555 0010474  45.6338 314.5758 15.28317345419868
SAUDISAT 5B             
1 43833U 18102C   26195.61497656  .00002942  00000+0  10838-3 0  9999
2 43833  97.3164 259.7890 0011260  47.0323 313.1860 15.28560594419980
GAOFEN-10R              
1 44622U 19066A   26195.61409703  .00000527  00000+0  71505-4 0  9998
2 44622  98.0514 149.3947 0006903  54.5931 305.5926 14.83056412366446
CARTOSAT-3              
1 44804U 19081A   26195.62228509  .00001871  00000+0  92009-4 0  9996
2 44804  97.4288 257.0466 0012780  61.1893 299.0623 15.19181586367637
GAOFEN-12 01            
1 44819U 19082A   26195.58779241  .00000165  00000+0  28208-4 0  9997
2 44819  97.8109 201.2449 0001002  54.0083 306.1222 14.80479304358144
CSG-1                   
1 44873U 19092A   26195.59566685  .00000155  00000+0  26054-4 0  9991
2 44873  97.8894  18.8022 0001498  90.2468 269.8917 14.82156478355534
NEMO-HD                 
1 46277U 20061F   26195.59346858  .00006536  00000+0  13988-3 0  9997
2 46277  97.1908 257.2771 0000986  94.8322 265.3040 15.45130862326213
SENTINEL-6A             
1 46984U 20086A   26195.41206048 -.00000044  00000+0  75230-4 0  9994
2 46984  66.0413  78.5072 0007791 269.8575  90.1548 12.80930141263814
CAS500-1                
1 47932U 21022A   26195.64353396  .00003532  00000+0  16650-3 0  9997
2 47932  97.3870  90.3367 0005152 172.7174 187.4137 15.20127563294931
GAOFEN-12 02            
1 48079U 21026A   26195.60180249  .00000154  00000+0  27077-4 0  9998
2 48079  97.9934 193.6720 0005799 133.7457 226.4236 14.80315772285816
PLEIADES NEO 3          
1 48268U 21034A   26195.60379074 -.00000069  00000+0 -21011-5 0  9993
2 48268  97.8946 269.9761 0001373  89.9930 270.1440 14.81667580281718
PLEIADES NEO 4          
1 49070U 21073E   26195.63755417  .00001248  00000+0  16513-3 0  9997
2 49070  97.8945 270.0053 0001360  94.1774 265.9595 14.81673877265436
LANDSAT 9               
1 49260U 21088A   26195.45848108  .00000137  00000+0  40439-4 0  9995
2 49260  98.2271 265.3042 0001138  88.3809 271.7519 14.57095098254970
CSG-2                   
1 51444U 22008A   26195.62939090 -.00000026  00000+0  32390-5 0  9991
2 51444  97.8887  18.8297 0001549  85.9525 274.1865 14.82150098240653
GAOFEN-12 03            
1 52912U 22069A   26195.63641600  .00000210  00000+0  34417-4 0  9992
2 52912  97.8251  82.8110 0002425  73.5271 286.6207 14.80073874218678
SWOT                    
1 54754U 22173A   26195.56958074  .00000045  00000+0  32477-4 0  9992
2 54754  77.6109 358.3425 0000268  79.1642 280.9540 14.00172367182989
GAOFEN-12 04            
1 57654U 23123A   26195.58838356  .00000472  00000+0  69628-4 0  9994
2 57654  97.9102 113.1970 0003547  51.8161 308.3370 14.79774709156685
PARS 1                  
1 59065U 24039Q   26195.62835266  .00006629  00000+0  13631-3 0  9993
2 59065  97.4836 177.4261 0009846  28.7692 331.4098 15.46281774132888
RESURS-P 4              
1 59371U 24061A   26195.62705072  .00001659  00000+0  55663-4 0  9999
2 59371  97.2759 143.0520 0003226  90.2462 269.9150 15.32277897127965
LEGION 1                
1 59625U 24081A   26195.53940145  .00001822  00000+0  96012-4 0  9990
2 59625  97.5014 273.1062 0007701 272.1900  87.8452 15.16841489121681
LEGION 2                
1 59626U 24081B   26195.56977876  .00002135  00000+0  11193-3 0  9999
2 59626  97.5015 273.2331 0010162 235.7069 124.3203 15.16820457121693
ALOS-4 (DAICHI-4)       
1 60182U 24123A   26195.54983231  .00000326  00000+0  50503-4 0  9994
2 60182  97.9222 292.3328 0001568  98.7226 261.4163 14.79468577109925
LEGION 3                
1 60452U 24146A   26195.54563179  .00001664  00000+0  99654-4 0  9990
2 60452  45.0020 243.8705 0008276 330.6398  29.4015 15.15653449106173
LEGION 4                
1 60453U 24146B   26195.61129896  .00001931  00000+0  11335-3 0  9999
2 60453  45.0030 335.3853 0008938 110.2253 249.9587 15.15678859105032
SENTINEL-2C             
1 60989U 24157A   26195.44528460  .00000045  00000+0  33736-4 0  9991
2 60989  98.5685 269.8404 0000958 103.4162 256.7128 14.30815533 96882
IONOSFERA-M 1           
1 61735U 24199A   26195.62085637  .00000030  00000+0  33122-4 0  9994
2 61735  98.7135  68.4989 0002168  73.6656 286.4760 14.22759084131607
